{
  "type": "FeatureCollection",
  "features": [
    {
      "type": "Feature",
      "properties": {},
      "geometry": {
        "coordinates": [
          [
            [
              81.81036417488536,
              21.495174260672812
            ],
            [
              81.81036417488536,
              21.49499569557753
            ],
            [
              81.81086528059262,
              21.49498577528763
            ],
            [
              81.81085994968055,
              21.49515690018694
            ],
            [
              81.81036417488536,
              21.495174260672812
            ]
          ]
        ],
        "type": "Polygon"
      }
    }
  ]
}