{
  "type": "FeatureCollection",
  "features": [
    {
      "type": "Feature",
      "properties": {},
      "geometry": {
        "coordinates": [
          [
            [
              81.81366401519193,
              21.497409116223835
            ],
            [
              81.81384427837548,
              21.49703835960358
            ],
            [
              81.81420480474037,
              21.49721491049317
            ],
            [
              81.81399607895025,
              21.497647459266872
            ],
            [
              81.81366401519193,
              21.497409116223835
            ]
          ]
        ],
        "type": "Polygon"
      }
    }
  ]
}