{
  "type": "FeatureCollection",
  "features": [
    {
      "type": "Feature",
      "properties": {},
      "geometry": {
        "coordinates": [
          [
            [
              81.8079336687266,
              21.49457520071131
            ],
            [
              81.8079336687266,
              21.494386727642308
            ],
            [
              81.80845961548738,
              21.49439003418958
            ],
            [
              81.80845961548738,
              21.494561974539252
            ],
            [
              81.8079336687266,
              21.49457520071131
            ]
          ]
        ],
        "type": "Polygon"
      }
    },
    {
      "type": "Feature",
      "properties": {},
      "geometry": {
        "coordinates": [
          [
            [
              81.80952572378476,
              21.494313983585087
            ],
            [
              81.80951506270225,
              21.49411228396484
            ],
            [
              81.80991307646599,
              21.494089138088796
            ],
            [
              81.809884646912,
              21.49432059668291
            ],
            [
              81.80952572378476,
              21.494313983585087
            ]
          ]
        ],
        "type": "Polygon"
      }
    },
    {
      "type": "Feature",
      "properties": {},
      "geometry": {
        "coordinates": [
          [
            [
              81.8098882006056,
              21.494684316587126
            ],
            [
              81.80987753952314,
              21.494337129425375
            ],
            [
              81.81005522423908,
              21.494330516329086
            ],
            [
              81.81005167054548,
              21.494684316587126
            ],
            [
              81.8098882006056,
              21.494684316587126
            ]
          ]
        ],
        "type": "Polygon"
      }
    },
    {
      "type": "Feature",
      "properties": {},
      "geometry": {
        "coordinates": [
          [
            [
              81.809959274493,
              21.494287531192356
            ],
            [
              81.80995572079775,
              21.494082524980413
            ],
            [
              81.8100729927105,
              21.494085831534647
            ],
            [
              81.81006588532154,
              21.494284224642726
            ],
            [
              81.809959274493,
              21.494287531192356
            ]
          ]
        ],
        "type": "Polygon"
      }
    }
  ]
}