{
  "type": "FeatureCollection",
  "features": [
    {
      "type": "Feature",
      "properties": {},
      "geometry": {
        "coordinates": [
          [
            [
              81.81126430104217,
              21.496983860622976
            ],
            [
              81.81142327698228,
              21.496591879848395
            ],
            [
              81.81185251202078,
              21.496747193111588
            ],
            [
              81.81166968968876,
              21.49710959008209
            ],
            [
              81.81126430104217,
              21.496983860622976
            ]
          ]
        ],
        "type": "Polygon"
      }
    }
  ]
}