{
  "type": "FeatureCollection",
  "features": [
    {
      "type": "Feature",
      "properties": {},
      "geometry": {
        "coordinates": [
          [
            [
              81.80730209222918,
              21.49471316390489
            ],
            [
              81.80730209222918,
              21.494228195616202
            ],
            [
              81.80774380191696,
              21.494224085708396
            ],
            [
              81.80771729933463,
              21.49470494411652
            ],
            [
              81.80730209222918,
              21.49471316390489
            ]
          ]
        ],
        "type": "Polygon"
      }
    },
    {
      "type": "Feature",
      "properties": {},
      "geometry": {
        "coordinates": [
          [
            [
              81.80546899702142,
              21.49472138369275
            ],
            [
              81.80545574573125,
              21.494487119564283
            ],
            [
              81.80578261090005,
              21.494507669065072
            ],
            [
              81.80579586219017,
              21.49473782326612
            ],
            [
              81.80546899702142,
              21.49472138369275
            ]
          ]
        ],
        "type": "Polygon"
      }
    }
  ]
}