{
  "type": "FeatureCollection",
  "features": [
    {
      "type": "Feature",
      "properties": {},
      "geometry": {
        "coordinates": [
          [
            [
              81.80727708682315,
              21.49470287136731
            ],
            [
              81.80731108100088,
              21.494205828732902
            ],
            [
              81.80772872375496,
              21.4942148658872
            ],
            [
              81.80772386744377,
              21.4947209456125
            ],
            [
              81.80727708682315,
              21.49470287136731
            ]
          ]
        ],
        "type": "Polygon"
      }
    }
  ]
}