{
    "type": "FeatureCollection",
    "features": [
        {
            "type": "Feature",
            "properties": {},
            "geometry": {
                "coordinates": [
                    [
                        [
                            81.80730997127,
                            21.494824463530605
                        ],
                        [
                            81.80730997127,
                            21.494095223911486
                        ],
                        [
                            81.80772806158524,
                            21.49409137228359
                        ],
                        [
                            81.80772668174876,
                            21.494825747399716
                        ],
                        [
                            81.80730997127,
                            21.494824463530605
                        ]
                    ]
                ],
                "type": "Polygon"
            }
        }
    ]
}