{
  "type": "FeatureCollection",
  "features": [
    {
      "type": "Feature",
      "properties": {},
      "geometry": {
        "coordinates": [
          [
            [
              81.805751,
              21.494288
            ],
            [
               81.807824,
               21.494392
            ],
            [
              81.807859,
                21.493938
            ],
            [
               81.805776,
              21.493982
            ],
            [
             81.805751,
              21.494288
            ]
          ]
        ],
        "type": "Polygon"
      }
    }
  ]
}