{
  "type": "FeatureCollection",
  "features": [
    {
      "type": "Feature",
      "properties": {},
      "geometry": {
        "coordinates": [
          [
            [
              81.805648,
              21.494395
            ],
            [
               81.805809,
               21.494479
            ],
            [
              81.807899,
              21.494533
            ],
            [
                81.807952,
                21.493802
            ],
            [
              81.805669,
              21.493730
            ],
            [
               81.805648,
               21.494395
            ]
          ]
        ],
        "type": "Polygon"
      }
    }
  ]
}