{
  "type": "FeatureCollection",
  "features": [
    {
      "type": "Feature",
      "properties": {},
      "geometry": {
        "coordinates": [
          [
            [
              81.80731191941453,
              21.494241559929634
            ],
            [
              81.80772252998253,
              21.494232716077434
            ],
            [
              81.80770352023245,
              21.494699670743856
            ],
            [
              81.8073062164903,
              21.494715589626708
            ],
            [
              81.80731191941453,
              21.494241559929634
            ]
          ]
        ],
        "type": "Polygon"
      }
    }
  ]
}