{
  "type": "FeatureCollection",
  "features": [
    {
      "type": "Feature",
      "properties": {
        "name": "Custom Plot",
        "source": "GeoCompliance Drawing Tool"
      },
      "geometry": {
        "type": "Polygon",
        "coordinates": [
          [
            [
              81.81035542487281,
              21.494728475409726
            ],
            [
              81.81237781047004,
              21.494743437909673
            ],
            [
              81.81237781047004,
              21.493960398346022
            ],
            [
              81.81033933161872,
              21.493990323502345
            ],
            [
              81.81035542487281,
              21.494728475409726
            ]
          ]
        ]
      }
    }
  ]
}