{
  "type": "FeatureCollection",
  "features": [
    {
      "type": "Feature",
      "properties": {
        "name": "Custom Plot",
        "source": "GeoCompliance Drawing Tool"
      },
      "geometry": {
        "type": "Polygon",
        "coordinates": [
          [
            [
              81.80794680117744,
              21.494824306287647
            ],
            [
              81.8101193904795,
              21.494754481313574
            ],
            [
              81.8101193904795,
              21.494011342013383
            ],
            [
              81.80795216559547,
              21.494051242206478
            ],
            [
              81.80794680117744,
              21.494824306287647
            ]
          ]
        ]
      }
    }
  ]
}