{
  "type": "FeatureCollection",
  "features": [
    {
      "type": "Feature",
      "properties": {
        "name": "Custom Plot",
        "source": "GeoCompliance Drawing Tool"
      },
      "geometry": {
        "type": "Polygon",
        "coordinates": [
          [
            [
              81.812080621703,
              21.497257820653605
            ],
            [
              81.8126921653584,
              21.495741639041096
            ],
            [
              81.81401181219373,
              21.496429907652573
            ],
            [
              81.81339597698752,
              21.497597209455314
            ],
            [
              81.812080621703,
              21.497257820653605
            ]
          ]
        ]
      }
    }
  ]
}