{
  "type": "FeatureCollection",
  "features": [
    {
      "type": "Feature",
      "properties": {
        "name": "Custom Plot",
        "source": "GeoCompliance Drawing Tool"
      },
      "geometry": {
        "type": "Polygon",
        "coordinates": [
          [
            [
              81.81045198439735,
              21.49581128738991
            ],
            [
              81.8121364116587,
              21.49653446774434
            ],
            [
              81.8123885393061,
              21.495841212165534
            ],
            [
              81.81045198439735,
              21.49581128738991
            ]
          ]
        ]
      }
    }
  ]
}