{
  "type": "FeatureCollection",
  "features": [
    {
      "type": "Feature",
      "properties": {
        "name": "Custom Plot",
        "source": "GeoCompliance Drawing Tool"
      },
      "geometry": {
        "type": "Polygon",
        "coordinates": [
          [
            [
              81.81175553797858,
              21.49740227942438
            ],
            [
              81.81206130980628,
              21.496604291864127
            ],
            [
              81.81018376349586,
              21.495985848494243
            ],
            [
              81.80986189841407,
              21.496549430058565
            ],
            [
              81.81175553797858,
              21.49740227942438
            ]
          ]
        ]
      }
    }
  ]
}