{
  "type": "FeatureCollection",
  "features": [
    {
      "type": "Feature",
      "properties": {
        "name": "Custom Plot",
        "source": "GeoCompliance Drawing Tool"
      },
      "geometry": {
        "type": "Polygon",
        "coordinates": [
          [
            [
              81.80802190302985,
              21.49571706550277
            ],
            [
              81.81014621256965,
              21.495652228425815
            ],
            [
              81.81015694140571,
              21.49490410621698
            ],
            [
              81.80796289443153,
              21.4949340311792
            ],
            [
              81.80802190302985,
              21.49571706550277
            ]
          ]
        ]
      }
    }
  ]
}