{
  "type": "FeatureCollection",
  "features": [
    {
      "type": "Feature",
      "properties": {
        "name": "Custom Plot",
        "source": "GeoCompliance Drawing Tool"
      },
      "geometry": {
        "type": "Polygon",
        "coordinates": [
          [
            [
              81.81035006045478,
              21.495642253488345
            ],
            [
              81.81236708163398,
              21.495602353731574
            ],
            [
              81.81235098837989,
              21.49487916874376
            ],
            [
              81.81036615370887,
              21.49491408120506
            ],
            [
              81.81035006045478,
              21.495642253488345
            ]
          ]
        ]
      }
    }
  ]
}