{
  "type": "FeatureCollection",
  "features": [
    {
      "type": "Feature",
      "properties": {
        "name": "Custom Plot",
        "source": "GeoCompliance Drawing Tool"
      },
      "geometry": {
        "type": "Polygon",
        "coordinates": [
          [
            [
              81.8099745511927,
              21.493391819206664
            ],
            [
              81.80998528002876,
              21.493252167850105
            ],
            [
              81.81032860278266,
              21.493252167850105
            ],
            [
              81.81032860278266,
              21.493371869021054
            ],
            [
              81.81083822249549,
              21.493401794298443
            ],
            [
              81.81083822249549,
              21.4937808472789
            ],
            [
              81.80793070792335,
              21.493875610369717
            ],
            [
              81.8079414367594,
              21.49346164483467
            ],
            [
              81.8099745511927,
              21.493391819206664
            ]
          ]
        ]
      }
    }
  ]
}