{
  "type": "FeatureCollection",
  "features": [
    {
      "type": "Feature",
      "properties": {
        "name": "Custom Plot",
        "source": "GeoCompliance Drawing Tool"
      },
      "geometry": {
        "type": "Polygon",
        "coordinates": [
          [
            [
              81.8047710657038,
              21.49452505616285
            ],
            [
              81.80567228793281,
              21.494894131228197
            ],
            [
              81.8077590465464,
              21.494859218762127
            ],
            [
              81.80773222445625,
              21.49408116734409
            ],
            [
              81.80479788779395,
              21.494116079996893
            ],
            [
              81.8047710657038,
              21.49452505616285
            ]
          ]
        ]
      }
    }
  ]
}