{
  "type": "FeatureCollection",
  "features": [
    {
      "type": "Feature",
      "properties": {
        "name": "Custom Plot",
        "source": "GeoCompliance Drawing Tool"
      },
      "geometry": {
        "type": "Polygon",
        "coordinates": [
          [
            [
              81.81012475489753,
              21.494733482056926
            ],
            [
              81.81008720397132,
              21.49405019294364
            ],
            [
              81.80944883822578,
              21.494060167990266
            ],
            [
              81.80947566031593,
              21.494718519555963
            ],
            [
              81.81012475489753,
              21.494733482056926
            ]
          ]
        ]
      }
    }
  ]
}