{
  "type": "FeatureCollection",
  "features": [
    {
      "type": "Feature",
      "properties": {
        "name": "Custom Plot",
        "source": "GeoCompliance Drawing Tool"
      },
      "geometry": {
        "type": "Polygon",
        "coordinates": [
          [
            [
              81.81036078929084,
              21.49518235637028
            ],
            [
              81.81084895133155,
              21.49516240643021
            ],
            [
              81.81085968016761,
              21.494992831829123
            ],
            [
              81.8103715181269,
              21.495012781792447
            ],
            [
              81.81036078929084,
              21.49518235637028
            ]
          ]
        ]
      }
    }
  ]
}