{
  "type": "FeatureCollection",
  "features": [
    {
      "type": "Feature",
      "properties": {
        "name": "Custom Plot",
        "source": "GeoCompliance Drawing Tool"
      },
      "geometry": {
        "type": "Polygon",
        "coordinates": [
          [
            [
              81.81242609023231,
              21.49745151783164
            ],
            [
              81.81252801417487,
              21.49742658079507
            ],
            [
              81.81250655650275,
              21.49735675706995
            ],
            [
              81.81241536139625,
              21.497366731889898
            ],
            [
              81.81242609023231,
              21.49745151783164
            ]
          ]
        ]
      }
    }
  ]
}