{
  "type": "FeatureCollection",
  "features": [
    {
      "type": "Feature",
      "properties": {
        "name": "Custom Plot",
        "source": "GeoCompliance Drawing Tool"
      },
      "geometry": {
        "type": "Polygon",
        "coordinates": [
          [
            [
              81.8116858005442,
              21.494703557053462
            ],
            [
              81.81179845332282,
              21.49469358205094
            ],
            [
              81.8118145465769,
              21.494563906955918
            ],
            [
              81.8118145465769,
              21.494025255324065
            ],
            [
              81.8103715181269,
              21.494015280275043
            ],
            [
              81.81033396720069,
              21.494399319168867
            ],
            [
              81.81134247779029,
              21.494469144313392
            ],
            [
              81.8116858005442,
              21.494703557053462
            ]
          ]
        ]
      }
    }
  ]
}