{
  "type": "FeatureCollection",
  "features": [
    {
      "type": "Feature",
      "properties": {
        "name": "Custom Plot",
        "source": "GeoCompliance Drawing Tool"
      },
      "geometry": {
        "type": "Polygon",
        "coordinates": [
          [
            [
              81.80737280844825,
              21.49555641724017
            ],
            [
              81.80778050421851,
              21.49553147987878
            ],
            [
              81.8077429532923,
              21.494987844337867
            ],
            [
              81.80736207961219,
              21.494997819320222
            ],
            [
              81.80737280844825,
              21.49555641724017
            ]
          ]
        ]
      }
    }
  ]
}