{
  "type": "FeatureCollection",
  "features": [
    {
      "type": "Feature",
      "properties": {},
      "geometry": {
        "coordinates": [
          [
            [
              81.81118097581185,
              21.494241738514816
            ],
            [
              81.81118097581185,
              21.494037754139043
            ],
            [
              81.81167205273402,
              21.494031634602607
            ],
            [
              81.81166328350292,
              21.494435523407063
            ],
            [
              81.81134101427347,
              21.494443682765606
            ],
            [
              81.81133005273409,
              21.494245818199616
            ],
            [
              81.81118097581185,
              21.494241738514816
            ]
          ]
        ],
        "type": "Polygon"
      }
    },
    {
      "type": "Feature",
      "properties": {},
      "geometry": {
        "coordinates": [
          [
            [
              81.81050574504093,
              21.49435596964085
            ],
            [
              81.81049039888705,
              21.49409282994833
            ],
            [
              81.81059782196428,
              21.494090790104323
            ],
            [
              81.81060001427255,
              21.49436412900286
            ],
            [
              81.81050574504093,
              21.49435596964085
            ]
          ]
        ],
        "type": "Polygon"
      }
    }
  ]
}