{
  "type": "FeatureCollection",
  "features": [
    {
      "type": "Feature",
      "properties": {
        "name": "Custom Plot",
        "source": "GeoCompliance Drawing Tool"
      },
      "geometry": {
        "type": "Polygon",
        "coordinates": [
          [
            [
              81.80798435210363,
              21.495681103983088
            ],
            [
              81.80886411666053,
              21.49567112904759
            ],
            [
              81.80886411666053,
              21.49493298192272
            ],
            [
              81.80797362326757,
              21.494977869354823
            ],
            [
              81.80798435210363,
              21.495681103983088
            ]
          ]
        ]
      }
    }
  ]
}