{
  "type": "FeatureCollection",
  "features": [
    {
      "type": "Feature",
      "properties": {
        "name": "Custom Plot",
        "source": "GeoCompliance Drawing Tool"
      },
      "geometry": {
        "type": "Polygon",
        "coordinates": [
          [
            [
              81.80889630316871,
              21.493750202145844
            ],
            [
              81.80912697314399,
              21.493730252009406
            ],
            [
              81.80913233756202,
              21.49344596226778
            ],
            [
              81.80887484549659,
              21.493450949811884
            ],
            [
              81.808408141128,
              21.493450949811884
            ],
            [
              81.80839741229194,
              21.493635488823898
            ],
            [
              81.80867636202949,
              21.493640476361513
            ],
            [
              81.80889630316871,
              21.493750202145844
            ]
          ]
        ]
      }
    }
  ]
}