{
  "type": "FeatureCollection",
  "features": [
    {
      "type": "Feature",
      "properties": {},
      "geometry": {
        "coordinates": [
          [
            [
              81.8079865139091,
              21.495603388525396
            ],
            [
              81.80797467811493,
              21.495341839883068
            ],
            [
              81.80839484884098,
              21.495336333590572
            ],
            [
              81.8083978077891,
              21.495529053695762
            ],
            [
              81.80811966660536,
              21.495531806838372
            ],
            [
              81.80811966660536,
              21.495603388525396
            ],
            [
              81.8079865139091,
              21.495603388525396
            ]
          ]
        ],
        "type": "Polygon"
      }
    },
    {
      "type": "Feature",
      "properties": {},
      "geometry": {
        "coordinates": [
          [
            [
              81.80811966660536,
              21.495270258067336
            ],
            [
              81.80809895396385,
              21.494986683604523
            ],
            [
              81.80829720353131,
              21.494967411533608
            ],
            [
              81.80830312142905,
              21.49525373918182
            ],
            [
              81.80811966660536,
              21.495270258067336
            ]
          ]
        ],
        "type": "Polygon"
      }
    },
    {
      "type": "Feature",
      "properties": {},
      "geometry": {
        "coordinates": [
          [
            [
              81.80857534471653,
              21.495600635384136
            ],
            [
              81.80857830366472,
              21.495116081728796
            ],
            [
              81.80886532169586,
              21.49510231597658
            ],
            [
              81.8088534859018,
              21.49558411653615
            ],
            [
              81.80857534471653,
              21.495600635384136
            ]
          ]
        ],
        "type": "Polygon"
      }
    },
    {
      "type": "Feature",
      "properties": {},
      "geometry": {
        "coordinates": [
          [
            [
              81.80912570918781,
              21.49561715423026
            ],
            [
              81.80910499654635,
              21.49532532100568
            ],
            [
              81.80935058929595,
              21.49532256785912
            ],
            [
              81.80935058929595,
              21.495622660512097
            ],
            [
              81.80912570918781,
              21.49561715423026
            ]
          ]
        ],
        "type": "Polygon"
      }
    },
    {
      "type": "Feature",
      "properties": {},
      "geometry": {
        "coordinates": [
          [
            [
              81.80982402109908,
              21.495509781696654
            ],
            [
              81.80984769269008,
              21.494981177299266
            ],
            [
              81.81008144964284,
              21.494983930452236
            ],
            [
              81.81005777805319,
              21.49550427541118
            ],
            [
              81.80982402109908,
              21.495509781696654
            ]
          ]
        ],
        "type": "Polygon"
      }
    }
  ]
}