{
  "type": "FeatureCollection",
  "features": [
    {
      "type": "Feature",
      "properties": {
        "name": "Custom Plot",
        "source": "GeoCompliance Drawing Tool"
      },
      "geometry": {
        "type": "Polygon",
        "coordinates": [
          [
            [
              81.80939519404548,
              21.49383000266429
            ],
            [
              81.81081140040534,
              21.493800077475015
            ],
            [
              81.81082749365943,
              21.493401074363046
            ],
            [
              81.80937373637336,
              21.493455937355822
            ],
            [
              81.80939519404548,
              21.49383000266429
            ]
          ]
        ]
      }
    }
  ]
}