{
  "type": "FeatureCollection",
  "features": [
    {
      "type": "Feature",
      "properties": {
        "name": "Custom Plot",
        "source": "GeoCompliance Drawing Tool"
      },
      "geometry": {
        "type": "Polygon",
        "coordinates": [
          [
            [
              81.80794680117744,
              21.49478834454729
            ],
            [
              81.80852079390662,
              21.49477836955058
            ],
            [
              81.80849397181647,
              21.494095080648098
            ],
            [
              81.8079414367594,
              21.494085105603848
            ],
            [
              81.80794680117744,
              21.49478834454729
            ]
          ]
        ]
      }
    }
  ]
}