{
  "type": "FeatureCollection",
  "features": [
    {
      "type": "Feature",
      "properties": {},
      "geometry": {
        "coordinates": [
          [
            [
              81.8073530299564,
              21.495572322166197
            ],
            [
              81.80733822556925,
              21.4952451731329
            ],
            [
              81.80761950891684,
              21.495227954742546
            ],
            [
              81.80761950891684,
              21.49534159608271
            ],
            [
              81.80770093304284,
              21.49534159608271
            ],
            [
              81.8077120363323,
              21.49553099811844
            ],
            [
              81.8073530299564,
              21.495572322166197
            ]
          ]
        ],
        "type": "Polygon"
      }
    },
    {
      "type": "Feature",
      "properties": {},
      "geometry": {
        "coordinates": [
          [
            [
              81.8073530299564,
              21.49510398226984
            ],
            [
              81.80734192741681,
              21.49498689676018
            ],
            [
              81.80755659102385,
              21.49498000939255
            ],
            [
              81.8075491888302,
              21.49511431301383
            ],
            [
              81.8073530299564,
              21.49510398226984
            ]
          ]
        ],
        "type": "Polygon"
      }
    }
  ]
}