{
  "type": "FeatureCollection",
  "features": [
    {
      "type": "Feature",
      "properties": {
        "name": "Custom Plot",
        "source": "GeoCompliance Drawing Tool"
      },
      "geometry": {
        "type": "Polygon",
        "coordinates": [
          [
            [
              81.80690073966163,
              21.495018697874528
            ],
            [
              81.80692219733375,
              21.4946595981307
            ],
            [
              81.80793607234138,
              21.49471944814955
            ],
            [
              81.80788242816108,
              21.495467571307923
            ],
            [
              81.80690073966163,
              21.495018697874528
            ]
          ]
        ]
      }
    },
    {
      "type": "Feature",
      "properties": {},
      "geometry": {
        "coordinates": [
          [
            [
              81.80725496644118,
              21.494704305656498
            ],
            [
              81.80727630539428,
              21.494237715710824
            ],
            [
              81.80767107602378,
              21.494178150929727
            ],
            [
              81.80769241497705,
              21.49473408794239
            ],
            [
              81.80725496644118,
              21.494704305656498
            ]
          ]
        ],
        "type": "Polygon"
      }
    },
    {
      "type": "Feature",
      "properties": {},
      "geometry": {
        "coordinates": [
          [
            [
              81.80550517230012,
              21.49445611970158
            ],
            [
              81.80553718072929,
              21.494168223463063
            ],
            [
              81.80719094958283,
              21.494267498092242
            ],
            [
              81.80550517230012,
              21.49445611970158
            ]
          ]
        ],
        "type": "Polygon"
      }
    },
    {
      "type": "Feature",
      "properties": {},
      "geometry": {
        "coordinates": [
          [
            [
              81.80563320601794,
              21.494922708946817
            ],
            [
              81.80477964789941,
              21.49451568436892
            ],
            [
              81.80482232580579,
              21.494118586123065
            ],
            [
              81.80773509288338,
              21.494118586123065
            ],
            [
              81.80772442340611,
              21.49485321702619
            ],
            [
              81.80563320601794,
              21.494922708946817
            ]
          ]
        ],
        "type": "Polygon"
      }
    },
    {
      "type": "Feature",
      "properties": {},
      "geometry": {
        "coordinates": [
          [
            [
              81.81133102981772,
              21.496961104982717
            ],
            [
              81.8114927457105,
              21.496657713497527
            ],
            [
              81.81178418612268,
              21.49677785095227
            ],
            [
              81.81163722670573,
              21.497074377205948
            ],
            [
              81.81133102981772,
              21.496961104982717
            ]
          ]
        ],
        "type": "Polygon"
      }
    }
  ]
}