{
  "type": "FeatureCollection",
  "features": [
    {
      "type": "Feature",
      "properties": {
        "name": "Custom Plot",
        "source": "GeoCompliance Drawing Tool"
      },
      "geometry": {
        "type": "Polygon",
        "coordinates": [
          [
            [
              81.80734062194007,
              21.494818277192127
            ],
            [
              81.80771076678413,
              21.494798327202133
            ],
            [
              81.80772686003822,
              21.494105063350514
            ],
            [
              81.80732452868598,
              21.494100075828815
            ],
            [
              81.80734062194007,
              21.494818277192127
            ]
          ]
        ]
      }
    }
  ]
}