{
  "type": "FeatureCollection",
  "features": [
    {
      "type": "Feature",
      "properties": {},
      "geometry": {
        "coordinates": [
          [
            [
              81.80793418702643,
              21.49478179720819
            ],
            [
              81.80796421020409,
              21.494128114532884
            ],
            [
              81.80846859959627,
              21.494100179310735
            ],
            [
              81.80847460423058,
              21.49475944913158
            ],
            [
              81.80793418702643,
              21.49478179720819
            ]
          ]
        ],
        "type": "Polygon"
      }
    },
    {
      "type": "Feature",
      "properties": {},
      "geometry": {
        "coordinates": [
          [
            [
              81.80951941082697,
              21.49439629239653
            ],
            [
              81.80948938764783,
              21.494072244082503
            ],
            [
              81.81009585584474,
              21.494072244082503
            ],
            [
              81.8100838465731,
              21.49474268807147
            ],
            [
              81.80986167505614,
              21.494703578923577
            ],
            [
              81.80984366114865,
              21.494318073903983
            ],
            [
              81.80951941082697,
              21.49439629239653
            ]
          ]
        ],
        "type": "Polygon"
      }
    },
    {
      "type": "Feature",
      "properties": {},
      "geometry": {
        "coordinates": [
          [
            [
              81.81118269234554,
              21.494256616704504
            ],
            [
              81.81115867380373,
              21.494010786779867
            ],
            [
              81.8116750724646,
              21.49402196087611
            ],
            [
              81.81163904465109,
              21.494452162939652
            ],
            [
              81.81131479432946,
              21.494424227778993
            ],
            [
              81.81132680359963,
              21.494245442626294
            ],
            [
              81.81118269234554,
              21.494256616704504
            ]
          ]
        ],
        "type": "Polygon"
      }
    },
    {
      "type": "Feature",
      "properties": {},
      "geometry": {
        "coordinates": [
          [
            [
              81.81051017315747,
              21.49437953151174
            ],
            [
              81.81049816388582,
              21.494105766572986
            ],
            [
              81.81033603872572,
              21.494072244300327
            ],
            [
              81.81035405263174,
              21.494016373828458
            ],
            [
              81.81063026586969,
              21.493999612682757
            ],
            [
              81.81062426123384,
              21.49439070557966
            ],
            [
              81.81051017315747,
              21.49437953151174
            ]
          ]
        ],
        "type": "Polygon"
      }
    }
  ]
}