{
  "type": "FeatureCollection",
  "features": [
    {
      "type": "Feature",
      "properties": {
        "name": "Custom Plot",
        "source": "GeoCompliance Drawing Tool"
      },
      "geometry": {
        "type": "Polygon",
        "coordinates": [
          [
            [
              81.80913233756202,
              21.49564120423698
            ],
            [
              81.8093630075373,
              21.49564120423698
            ],
            [
              81.80936837195532,
              21.49532699335402
            ],
            [
              81.80913233756202,
              21.495317018394235
            ],
            [
              81.80913233756202,
              21.49564120423698
            ]
          ]
        ]
      }
    }
  ]
}