{
  "type": "FeatureCollection",
  "features": [
    {
      "type": "Feature",
      "properties": {
        "name": "Custom Plot",
        "source": "GeoCompliance Drawing Tool"
      },
      "geometry": {
        "type": "Polygon",
        "coordinates": [
          [
            [
              81.8054898977198,
              21.494728502215594
            ],
            [
              81.80576884745734,
              21.494713539714123
            ],
            [
              81.8057795762934,
              21.494494089515715
            ],
            [
              81.80548453330177,
              21.49448411449883
            ],
            [
              81.8054898977198,
              21.494728502215594
            ]
          ]
        ]
      }
    }
  ]
}