{
  "type": "FeatureCollection",
  "features": [
    {
      "type": "Feature",
      "properties": {
        "name": "Custom Plot",
        "source": "GeoCompliance Drawing Tool"
      },
      "geometry": {
        "type": "Polygon",
        "coordinates": [
          [
            [
              81.80981898306983,
              21.49564619170584
            ],
            [
              81.81012475489753,
              21.49562624182937
            ],
            [
              81.81010866164344,
              21.494962906879
            ],
            [
              81.80984044074195,
              21.494962906879
            ],
            [
              81.80981898306983,
              21.49564619170584
            ]
          ]
        ]
      }
    }
  ]
}