{
  "type": "FeatureCollection",
  "features": [
    {
      "type": "Feature",
      "properties": {},
      "geometry": {
        "coordinates": [
          [
            [
              81.95946420772947,
              21.744700860878012
            ],
            [
              81.95949800648623,
              21.74434925026027
            ],
            [
              81.95992387082566,
              21.744380644100076
            ],
            [
              81.9598900720689,
              21.744744812144063
            ],
            [
              81.95946420772947,
              21.744700860878012
            ]
          ]
        ],
        "type": "Polygon"
      }
    },
    {
      "type": "Feature",
      "properties": {},
      "geometry": {
        "coordinates": [
          [
            [
              81.95943040897271,
              21.744970847017527
            ],
            [
              81.9594574479778,
              21.74473225464095
            ],
            [
              81.95962644176325,
              21.744763648397807
            ],
            [
              81.95957912350309,
              21.744995961981658
            ],
            [
              81.95943040897271,
              21.744970847017527
            ]
          ]
        ],
        "type": "Polygon"
      }
    }
  ]
}