{
  "type": "FeatureCollection",
  "features": [
    {
      "type": "Feature",
      "properties": {},
      "geometry": {
        "coordinates": [
          [
            [
              81.96038353392345,
              21.744713418383867
            ],
            [
              81.96045789118864,
              21.74448738310535
            ],
            [
              81.9607823592579,
              21.744537613198347
            ],
            [
              81.96070124224099,
              21.744807599644602
            ],
            [
              81.96038353392345,
              21.744713418383867
            ]
          ]
        ],
        "type": "Polygon"
      }
    },
    {
      "type": "Feature",
      "properties": {},
      "geometry": {
        "coordinates": [
          [
            [
              81.9601807413813,
              21.744537613198347
            ],
            [
              81.96026185839816,
              21.744286462559415
            ],
            [
              81.96010638411451,
              21.74426134747121
            ],
            [
              81.96014018287286,
              21.74402275391624
            ],
            [
              81.96045789118864,
              21.74406042660911
            ],
            [
              81.96043085218366,
              21.744506219392107
            ],
            [
              81.9601807413813,
              21.744537613198347
            ]
          ]
        ],
        "type": "Polygon"
      }
    },
    {
      "type": "Feature",
      "properties": {},
      "geometry": {
        "coordinates": [
          [
            [
              81.9602888974033,
              21.743564402027033
            ],
            [
              81.96036325467009,
              21.743162558072285
            ],
            [
              81.96051196920047,
              21.74320650980974
            ],
            [
              81.9605390082072,
              21.743124885144
            ],
            [
              81.96046465094042,
              21.743106048676154
            ],
            [
              81.96054576795723,
              21.742779549505897
            ],
            [
              81.96089051528145,
              21.742829780196004
            ],
            [
              81.9607823592579,
              21.743646026443002
            ],
            [
              81.9602888974033,
              21.743564402027033
            ]
          ]
        ],
        "type": "Polygon"
      }
    }
  ]
}