{
  "type": "FeatureCollection",
  "features": [
    {
      "type": "Feature",
      "properties": {},
      "geometry": {
        "coordinates": [
          [
            [
              81.95948448698289,
              21.74360207484007
            ],
            [
              81.95949124673456,
              21.743325807314562
            ],
            [
              81.95994415008073,
              21.743363480190155
            ],
            [
              81.95994415008073,
              21.743633468843868
            ],
            [
              81.95948448698289,
              21.74360207484007
            ]
          ]
        ],
        "type": "Polygon"
      }
    }
  ]
}