{
  "type": "FeatureCollection",
  "features": [
    {
      "type": "Feature",
      "properties": {},
      "geometry": {
        "coordinates": [
          [
            [
              81.96083643726962,
              21.744851550878778
            ],
            [
              81.96047141069198,
              21.74483271463731
            ],
            [
              81.9601807413813,
              21.74403531148137
            ],
            [
              81.96020102063471,
              21.743275576797842
            ],
            [
              81.96072828124602,
              21.742578626571344
            ],
            [
              81.96114062608376,
              21.74263513617572
            ],
            [
              81.96083643726962,
              21.744851550878778
            ]
          ]
        ],
        "type": "Polygon"
      }
    }
  ]
}