{
  "type": "FeatureCollection",
  "features": [
    {
      "type": "Feature",
      "properties": {},
      "geometry": {
        "coordinates": [
          [
            [
              81.95948448698289,
              21.74361463244267
            ],
            [
              81.95948448698289,
              21.74240281877333
            ],
            [
              81.96005230610433,
              21.74240281877333
            ],
            [
              81.96005230610433,
              21.74361463244267
            ],
            [
              81.95948448698289,
              21.74361463244267
            ]
          ]
        ],
        "type": "Polygon"
      }
    }
  ]
}